{
  "type": "FeatureCollection",
  "features": [
    {
      "type": "Feature",
      "properties": {
        "norad_id": 57400,
        "name": "TIANMU-1 08",
        "group": "weather",
        "lat": 20.319990886110094,
        "lon": 23.89746085137111,
        "alt_km": 482.54756428063683,
        "timestamp": "2025-12-02T17:49:11.668726+00:00",
        "meta_object_name": "TIANMU-1 08",
        "meta_object_id": "2023-101B",
        "meta_epoch": "2025-12-02T11:26:34.605888",
        "meta_mean_motion": 15.27820508,
        "meta_eccentricity": 0.0007441,
        "meta_inclination": 97.2887,
        "meta_ra_of_asc_node": 26.3543,
        "meta_arg_of_pericenter": 112.859,
        "meta_mean_anomaly": 247.3436,
        "meta_ephemeris_type": 0,
        "meta_classification_type": "U",
        "meta_norad_cat_id": 57400,
        "meta_element_set_no": 999,
        "meta_rev_at_epoch": 13158,
        "meta_bstar": 0.00034518,
        "meta_mean_motion_dot": 9.315e-05,
        "meta_mean_motion_ddot": 0,
        "tle_line1": "1 57400U 23101B   25336.47678942  .00009315  00000+0  34518-3 0  9990",
        "tle_line2": "2 57400  97.2887  26.3543 0007441 112.8590 247.3436 15.27820508131589"
      },
      "geometry": {
        "type": "Point",
        "coordinates": [
          23.89746085137111,
          20.319990886110094
        ]
      }
    },
    {
      "type": "Feature",
      "properties": {
        "norad_id": 57401,
        "name": "TIANMU-1 09",
        "group": "weather",
        "lat": 82.33047617743287,
        "lon": -82.08162383144585,
        "alt_km": 470.41608606771206,
        "timestamp": "2025-12-02T17:49:11.668742+00:00",
        "meta_object_name": "TIANMU-1 09",
        "meta_object_id": "2023-101C",
        "meta_epoch": "2025-12-02T11:07:47.474688",
        "meta_mean_motion": 15.27841964,
        "meta_eccentricity": 0.0006723,
        "meta_inclination": 97.2844,
        "meta_ra_of_asc_node": 25.8606,
        "meta_arg_of_pericenter": 111.886,
        "meta_mean_anomaly": 248.3095,
        "meta_ephemeris_type": 0,
        "meta_classification_type": "U",
        "meta_norad_cat_id": 57401,
        "meta_element_set_no": 999,
        "meta_rev_at_epoch": 13158,
        "meta_bstar": 0.00034705,
        "meta_mean_motion_dot": 9.37e-05,
        "meta_mean_motion_ddot": 0,
        "tle_line1": "1 57401U 23101C   25336.46374392  .00009370  00000+0  34705-3 0  9991",
        "tle_line2": "2 57401  97.2844  25.8606 0006723 111.8860 248.3095 15.27841964131589"
      },
      "geometry": {
        "type": "Point",
        "coordinates": [
          -82.08162383144585,
          82.33047617743287
        ]
      }
    },
    {
      "type": "Feature",
      "properties": {
        "norad_id": 57402,
        "name": "TIANMU-1 10",
        "group": "weather",
        "lat": -81.00031022034831,
        "lon": 153.01611566879865,
        "alt_km": 494.79642452025837,
        "timestamp": "2025-12-02T17:49:11.668758+00:00",
        "meta_object_name": "TIANMU-1 10",
        "meta_object_id": "2023-101D",
        "meta_epoch": "2025-12-02T11:56:58.776864",
        "meta_mean_motion": 15.27833026,
        "meta_eccentricity": 0.0008461,
        "meta_inclination": 97.2925,
        "meta_ra_of_asc_node": 26.7329,
        "meta_arg_of_pericenter": 113.0705,
        "meta_mean_anomaly": 247.1428,
        "meta_ephemeris_type": 0,
        "meta_classification_type": "U",
        "meta_norad_cat_id": 57402,
        "meta_element_set_no": 999,
        "meta_rev_at_epoch": 13158,
        "meta_bstar": 0.00036555,
        "meta_mean_motion_dot": 9.875e-05,
        "meta_mean_motion_ddot": 0,
        "tle_line1": "1 57402U 23101D   25336.49790251  .00009875  00000+0  36555-3 0  9996",
        "tle_line2": "2 57402  97.2925  26.7329 0008461 113.0705 247.1428 15.27833026131582"
      },
      "geometry": {
        "type": "Point",
        "coordinates": [
          153.01611566879865,
          -81.00031022034831
        ]
      }
    },
    {
      "type": "Feature",
      "properties": {
        "norad_id": 57490,
        "name": "FENGYUN 3F",
        "group": "weather",
        "lat": 80.8024001285351,
        "lon": -26.011650646293603,
        "alt_km": 817.7736272376342,
        "timestamp": "2025-12-02T17:49:11.668777+00:00",
        "meta_object_name": "FENGYUN 3F",
        "meta_object_id": "2023-111A",
        "meta_epoch": "2025-12-02T12:20:16.284768",
        "meta_mean_motion": 14.19889149,
        "meta_eccentricity": 7.07e-05,
        "meta_inclination": 98.7096,
        "meta_ra_of_asc_node": 44.9719,
        "meta_arg_of_pericenter": 84.9132,
        "meta_mean_anomaly": 275.2125,
        "meta_ephemeris_type": 0,
        "meta_classification_type": "U",
        "meta_norad_cat_id": 57490,
        "meta_element_set_no": 999,
        "meta_rev_at_epoch": 12095,
        "meta_bstar": 8.5039e-05,
        "meta_mean_motion_dot": 1.37e-06,
        "meta_mean_motion_ddot": 0,
        "tle_line1": "1 57490U 23111A   25336.51407737  .00000137  00000+0  85039-4 0  9995",
        "tle_line2": "2 57490  98.7096  44.9719 0000707  84.9132 275.2125 14.19889149120956"
      },
      "geometry": {
        "type": "Point",
        "coordinates": [
          -26.011650646293603,
          80.8024001285351
        ]
      }
    },
    {
      "type": "Feature",
      "properties": {
        "norad_id": 58584,
        "name": "ARKTIKA-M 2",
        "group": "weather",
        "lat": 46.378330209266814,
        "lon": -36.029499319790574,
        "alt_km": 24382.737378240912,
        "timestamp": "2025-12-02T17:49:11.668795+00:00",
        "meta_object_name": "ARKTIKA-M 2",
        "meta_object_id": "2023-198A",
        "meta_epoch": "2025-12-01T08:43:04.634112",
        "meta_mean_motion": 2.00605427,
        "meta_eccentricity": 0.68640288,
        "meta_inclination": 63.2218,
        "meta_ra_of_asc_node": 176.1298,
        "meta_arg_of_pericenter": 268.1507,
        "meta_mean_anomaly": 18.8441,
        "meta_ephemeris_type": 0,
        "meta_classification_type": "U",
        "meta_norad_cat_id": 58584,
        "meta_element_set_no": 999,
        "meta_rev_at_epoch": 1435,
        "meta_bstar": 0,
        "meta_mean_motion_dot": 2.37e-06,
        "meta_mean_motion_ddot": 0,
        "tle_line1": "1 58584U 23198A   25335.36324808  .00000237  00000+0  00000+0 0  9995",
        "tle_line2": "2 58584  63.2218 176.1298 6864028 268.1507  18.8441  2.00605427 14356"
      },
      "geometry": {
        "type": "Point",
        "coordinates": [
          -36.029499319790574,
          46.378330209266814
        ]
      }
    },
    {
      "type": "Feature",
      "properties": {
        "norad_id": 58645,
        "name": "TIANMU-1 11",
        "group": "weather",
        "lat": -27.69091465423338,
        "lon": 172.65272248238134,
        "alt_km": 503.2737118431487,
        "timestamp": "2025-12-02T17:49:11.668814+00:00",
        "meta_object_name": "TIANMU-1 11",
        "meta_object_id": "2023-205A",
        "meta_epoch": "2025-12-02T12:11:03.941664",
        "meta_mean_motion": 15.24401264,
        "meta_eccentricity": 0.0008943,
        "meta_inclination": 97.3616,
        "meta_ra_of_asc_node": 356.3126,
        "meta_arg_of_pericenter": 350.2821,
        "meta_mean_anomaly": 9.8243,
        "meta_ephemeris_type": 0,
        "meta_classification_type": "U",
        "meta_norad_cat_id": 58645,
        "meta_element_set_no": 999,
        "meta_rev_at_epoch": 10753,
        "meta_bstar": 0.00029902,
        "meta_mean_motion_dot": 7.267e-05,
        "meta_mean_motion_ddot": 0,
        "tle_line1": "1 58645U 23205A   25336.50768451  .00007267  00000+0  29902-3 0  9991",
        "tle_line2": "2 58645  97.3616 356.3126 0008943 350.2821   9.8243 15.24401264107534"
      },
      "geometry": {
        "type": "Point",
        "coordinates": [
          172.65272248238134,
          -27.69091465423338
        ]
      }
    },
    {
      "type": "Feature",
      "properties": {
        "norad_id": 58646,
        "name": "TIANMU-1 12",
        "group": "weather",
        "lat": 62.83430254222951,
        "lon": -18.23747372134735,
        "alt_km": 486.6111518227917,
        "timestamp": "2025-12-02T17:49:11.668833+00:00",
        "meta_object_name": "TIANMU-1 12",
        "meta_object_id": "2023-205B",
        "meta_epoch": "2025-12-02T12:48:53.470944",
        "meta_mean_motion": 15.24314598,
        "meta_eccentricity": 0.0006722,
        "meta_inclination": 97.3603,
        "meta_ra_of_asc_node": 356.1471,
        "meta_arg_of_pericenter": 336.1556,
        "meta_mean_anomaly": 23.9369,
        "meta_ephemeris_type": 0,
        "meta_classification_type": "U",
        "meta_norad_cat_id": 58646,
        "meta_element_set_no": 999,
        "meta_rev_at_epoch": 10752,
        "meta_bstar": 0.0003516,
        "meta_mean_motion_dot": 8.533e-05,
        "meta_mean_motion_ddot": 0,
        "tle_line1": "1 58646U 23205B   25336.53395221  .00008533  00000+0  35160-3 0  9996",
        "tle_line2": "2 58646  97.3603 356.1471 0006722 336.1556  23.9369 15.24314598107521"
      },
      "geometry": {
        "type": "Point",
        "coordinates": [
          -18.23747372134735,
          62.83430254222951
        ]
      }
    }
  ]
}